COSMOS 2547 [GLONASS-K] 
1 46805U 20075A   26061.42179443 -.00000012  00000+0  00000+0 0  9998
2 46805  64.5998 196.0353 0006707 229.5207 130.3796  2.13100073 41630
NAVSTAR 80 (USA 309)    
1 46826U 20078A   26062.80519441 -.00000007  00000+0  00000+0 0  9997
2 46826  54.0018 215.0499 0068192 204.2889 325.6484  2.00565522 39398
GSAT0223 (GALILEO 27)   
1 49809U 21116A   26048.03988929 -.00000078  00000+0  00000+0 0  9993
2 49809  57.2005 344.9238 0002865 278.1950 264.6358  1.70475508 26130
GSAT0224 (GALILEO 28)   
1 49810U 21116B   26054.89517960 -.00000088  00000+0  00000+0 0  9990
2 49810  57.1984 344.7369 0002182 291.9502 250.7131  1.70475193 26278
GOES 18                 
1 51850U 22021A   26062.77332172  .00000083  00000+0  00000+0 0  9993
2 51850   0.0285  75.7364 0000601 319.5556 267.6184  1.00271736  5533
COSMOS 2557 [GLONASS-K] 
1 52984U 22075A   26062.52543027 -.00000052  00000+0  00000+0 0  9994
2 52984  64.3599 318.2098 0011630 283.5045  76.4245  2.13101658 28460
METEOSAT-12 (MTG-I1)    
1 54743U 22170C   26062.58646740 -.00000021  00000+0  00000+0 0  9993
2 54743   0.7450  29.0227 0001882 282.4552  60.7136  1.00274767 11919
METEOR-M2 3             
1 57166U 23091A   26062.84526022  .00000029  00000+0  31544-4 0  9996
2 57166  98.6227 119.9152 0005036 112.5050 247.6663 14.24036972139529
COSMOS 2569 [GLONASS-K2]
1 57517U 23114A   26062.20130409  .00000024  00000+0  00000+0 0  9995
2 57517  65.2411  76.1935 0012888 291.5477  68.3625  2.13103933 20006
METEOR-M2 4             
1 59051U 24039A   26062.88103704  .00000054  00000+0  43639-4 0  9992
2 59051  98.6896  23.5710 0008066 110.9321 249.2720 14.22416090104294
GSAT0225 (GALILEO 29)   
1 59598U 24079A   26062.23239214  .00000013  00000+0  00000+0 0  9992
2 59598  55.0491 104.0400 0002532 257.0391 101.5580  1.70474849 11501
GSAT0227 (GALILEO 30)   
1 59600U 24079C   26060.07188623  .00000010  00000+0  00000+0 0  9990
2 59600  55.0426 104.0995 0000415  85.7874 274.2997  1.70474778 11525
GSAT0232 (GALILEO 32)   
1 61182U 24167A   26048.66150565  .00000069  00000+0  00000+0 0  9995
2 61182  55.2225 224.5881 0003600 296.6314 116.1306  1.70443939  8265
GSAT0226 (GALILEO 31)   
1 61183U 24167B   26061.41649845  .00000011  00000+0  00000+0 0  9995
2 61183  55.2184 224.2466 0001610 129.2375 282.9718  1.70474130  9035
GSAT0233 (GALILEO 33)   
1 67160U 25302A   26044.50000000 -.00000008  00000+0  00000+0 0  9990
2 67160  54.3935 105.2952 0003011 207.0582 359.4109  1.70474578    20
GSAT0234 (GALILEO 34)   
1 67162U 25302C   26044.50000000 -.00000008  00000+0  00000+0 0  9992
2 67162  54.3967 105.2938 0003081 266.8423 119.7309  1.70475065   127
